NORAD_CAT_ID,OBJECT_NAME,OBJECT_TYPE,EPOCH,MEAN_MOTION,ECCENTRICITY,INCLINATION,RA_OF_ASC_NODE,ARG_OF_PERICENTER,MEAN_ANOMALY,BSTAR,MEAN_MOTION_DOT,MEAN_MOTION_DDOT,TLE_LINE0,TLE_LINE1,TLE_LINE2,SEMIMAJOR_AXIS,PERIOD,APOGEE,PERIGEE,DECAYED
49177.0,STARLINK-3103,PAYLOAD,2022-03-26 14:00:01,15.69747678,0.000376,70.0002,303.0061,251.6356,147.285,-5.9828e-06,-9.27e-06,0.0,0 STARLINK-3103,1 49177U 21082AZ  22085.58334491 -.00000927  00000-0 -59828-5 0  9992,2 49177  70.0002 303.0061 0003760 251.6356 147.2850 15.69747678 31669,6737.755999999999,91.734,362.154,357.088,0.0
49177.0,STARLINK-3103,PAYLOAD,2022-03-26 22:00:00,15.69722051,0.0003914,70.0,302.0505,253.4286,228.8515,0.0004036,0.00048196,0.0,0 STARLINK-3103,1 49177U 21082AZ  22085.91667824  .00048196  00000-0  40360-3 0  9995,2 49177  70.0000 302.0505 0003914 253.4286 228.8515 15.69722051 31710,6737.829000000002,91.736,362.331,357.057,0.0
49177.0,STARLINK-3103,PAYLOAD,2022-03-27 14:00:01,15.69758125,0.0003903,70.0001,300.1766,247.4875,41.0782,4.9265e-05,5.675e-05,0.0,0 STARLINK-3103,1 49177U 21082AZ  22086.58334491  .00005675  00000-0  49265-4 0  9999,2 49177  70.0001 300.1766 0003903 247.4875  41.0782 15.69758125  3704,6737.726,91.734,362.221,356.961,0.0
49177.0,STARLINK-3103,PAYLOAD,2022-03-27 22:00:01,15.69761667,0.0003871,70.0001,299.2395,252.9027,118.8885,-0.00028654,-0.000343,0.0,0 STARLINK-3103,1 49177U 21082AZ  22086.91668981 -.00034300  00000-0 -28654-3 0  9997,2 49177  70.0001 299.2395 0003871 252.9027 118.8885 15.69761667 31875,6737.715999999999,91.734,362.189,356.973,0.0
49177.0,STARLINK-3103,PAYLOAD,2022-03-28 14:00:01,15.69626978,0.0003969,70.0003,297.3765,252.8517,285.2348,-0.0033276,-0.00378241,0.0,0 STARLINK-3103,1 49177U 21082AZ  22087.58335648 -.00378241  00000-0 -33276-2 0  9992,2 49177  70.0003 297.3765 0003969 252.8517 285.2348 15.69626978  3651,6738.101,91.742,362.641,357.292,0.0
49177.0,STARLINK-3103,PAYLOAD,2022-03-28 22:00:00,15.6962669,0.0003777,70.0001,296.4457,253.3322,7.4416,-0.0067024,-0.00730591,0.0,0 STARLINK-3103,1 49177U 21082AZ  22087.91667824 -.00730591  00000-0 -67024-2 0  9991,2 49177  70.0001 296.4457 0003777 253.3322   7.4416 15.69626690 32028,6738.102,91.742,362.512,357.422,0.0
49177.0,STARLINK-3103,PAYLOAD,2022-03-29 14:00:01,15.68593977,0.0003715,70.0001,294.573,256.3988,169.0833,-0.0068507,-0.00716687,0.0,0 STARLINK-3103,1 49177U 21082AZ  22088.58334491 -.00716687  00000-0 -68507-2 0  9993,2 49177  70.0001 294.5730 0003715 256.3988 169.0833 15.68593977  3716,6741.059,91.802,365.429,360.42,0.0
49177.0,STARLINK-3103,PAYLOAD,2022-03-29 22:00:00,15.68015914,0.0004242,70.0001,293.6353,255.8406,251.1116,-0.006118,-0.00631562,0.0,0 STARLINK-3103,1 49177U 21082AZ  22088.91667824 -.00631562  00000-0 -61180-2 0  9997,2 49177  70.0001 293.6353 0004242 255.8406 251.1116 15.68015914  3652,6742.715999999999,91.836,367.441,361.721,0.0
49177.0,STARLINK-3103,PAYLOAD,2022-03-30 02:00:01,15.67827656,0.0004163,69.9999,293.1690000000001,252.2802,115.1198,-0.0070558,-0.00715529,0.0,0 STARLINK-3103,1 49177U 21082AZ  22089.08334491 -.00715529  00000-0 -70558-2 0  9992,2 49177  69.9999 293.1690 0004163 252.2802 115.1198 15.67827656 32213,6743.255999999999,91.847,367.92800000000005,362.31300000000016,0.0
49177.0,STARLINK-3103,PAYLOAD,2022-03-30 14:00:01,15.66998126,0.0003706,69.9999,291.7667,259.3385,48.7009,-0.0064069,-0.00634158,0.0,0 STARLINK-3103,1 49177U 21082AZ  22089.58335648 -.00634158  00000-0 -64069-2 0  9990,2 49177  69.9999 291.7667 0003706 259.3385  48.7009 15.66998126  3666,6745.635,91.895,370.0,365.0,0.0
49177.0,STARLINK-3103,PAYLOAD,2022-03-30 22:00:00,15.66552357,0.0003552,70.0001,290.8345,265.9945,121.538,-0.0074905,-0.00720558,0.0,0 STARLINK-3103,1 49177U 21082AZ  22089.91667824 -.00720558  00000-0 -74905-2 0  9991,2 49177  70.0001 290.8345 0003552 265.9945 121.5380 15.66552357  3710,6746.915,91.922,371.176,366.383,0.0
49177.0,STARLINK-3103,PAYLOAD,2022-03-31 06:00:00,15.66040301,0.000362,69.9998,289.9015,258.3045,208.2095,-0.0076286,-0.00718982,0.0,0 STARLINK-3103,1 49177U 21082AZ  22090.25001157 -.00718982  00000-0 -76286-2 0  9993,2 49177  69.9998 289.9015 0003620 258.3045 208.2095 15.66040301 32391,6748.386,91.952,372.693,367.8080000000001,0.0
49177.0,STARLINK-3103,PAYLOAD,2022-03-31 14:00:01,15.6552816,0.0003386,70.0002,288.9694,266.1285,278.7535,-0.0077486,-0.00715628,0.0,0 STARLINK-3103,1 49177U 21082AZ  22090.58334491 -.00715628  00000-0 -77486-2 0  9996,2 49177  70.0002 288.9694 0003386 266.1285 278.7535 15.65528160  3688,6749.857,91.982,374.008,369.437,0.0
49177.0,STARLINK-3103,PAYLOAD,2022-03-31 22:00:00,15.65018142,0.0003418,70.0002,288.0378,263.9675,358.6698,-0.0079401,-0.00718273,0.0,0 STARLINK-3103,1 49177U 21082AZ  22090.91667824 -.00718273  00000-0 -79401-2 0  9990,2 49177  70.0002 288.0378 0003418 263.9675 358.6698 15.65018142  3718,6751.324000000001,92.012,375.496,370.881,0.0
49177.0,STARLINK-3103,PAYLOAD,2022-04-01 08:00:01,15.64327832,0.0003481999999999,70.0001,286.874,269.4408,179.5532,-0.0072644999999999,-0.00645063,0.0,0 STARLINK-3103,1 49177U 21082AZ  22091.33334491 -.00645063  00000-0 -72645-2 0  9997,2 49177  70.0001 286.8740 0003482 269.4408 179.5532 15.64327832 32562,6753.31,92.052,377.526,372.823,0.0
49177.0,STARLINK-3103,PAYLOAD,2022-04-01 14:00:01,15.63995731,0.0003553,70.0002,286.1772,267.9662,148.3434,-0.0082574,-0.00717332,0.0,0 STARLINK-3103,1 49177U 21082AZ  22091.58334491 -.00717332  00000-0 -82574-2 0  9995,2 49177  70.0002 286.1772 0003553 267.9662 148.3434 15.63995731  3690,6754.266,92.072,378.53,373.731,0.0
49177.0,STARLINK-3103,PAYLOAD,2022-04-01 22:00:00,15.634835199999998,0.0003493,70.0,285.2479,262.1417,230.0853,-0.0083984,-0.00715135,0.0,0 STARLINK-3103,1 49177U 21082AZ  22091.91667824 -.00715135  00000-0 -83984-2 0  9996,2 49177  70.0000 285.2479 0003493 262.1417 230.0853 15.63483520 32650,6755.741,92.102,379.965,375.246,0.0
49177.0,STARLINK-3103,PAYLOAD,2022-04-02 22:00:01,15.61952328,0.0003556,70.0001,282.4641,264.4603,91.9051,-0.0089562,-0.00717986,0.0,0 STARLINK-3103,1 49177U 21082AZ  22092.91668981 -.00717986  00000-0 -89562-2 0  9996,2 49177  70.0001 282.4641 0003556 264.4603  91.9051 15.61952328 32810,6760.155,92.192,384.424,379.616,0.0
49177.0,STARLINK-3103,PAYLOAD,2022-04-03 22:00:00,15.60416195,0.0003326,70.0,279.6867,267.4448,307.4156,-0.0094266,-0.007125,0.0,0 STARLINK-3103,1 49177U 21082AZ  22093.91667824 -.00712500  00000-0 -94266-2 0  9996,2 49177  70.0000 279.6867 0003326 267.4448 307.4156 15.60416195 32965,6764.590999999999,92.283,388.706,384.206,0.0
49177.0,STARLINK-3103,PAYLOAD,2022-04-04 14:00:01,15.59397715,0.0003536,70.0003,277.8388,267.4654,90.0358,-0.0098825,-0.00717956,0.0,0 STARLINK-3103,1 49177U 21082AZ  22094.58334491 -.00717956  00000-0 -98825-2 0  9996,2 49177  70.0003 277.8388 0003536 267.4654  90.0358 15.59397715  3699,6767.536,92.343,391.794,387.008,0.0
49177.0,STARLINK-3103,PAYLOAD,2022-04-04 22:00:00,15.58883105,0.0003534,70.0001,276.9157,267.9932,159.9111,-0.009991,-0.00712261,0.0,0 STARLINK-3103,1 49177U 21082AZ  22094.91667824 -.00712261  00000-0 -99910-2 0  9992,2 49177  70.0001 276.9157 0003534 267.9932 159.9111 15.58883105  3709,6769.025,92.374,393.283,388.49800000000016,0.0
49177.0,STARLINK-3103,PAYLOAD,2022-04-05 00:00:00,15.58755241,0.0003391,69.9997,276.6851,267.8766,267.5324,-0.010035,-0.00711923,0.0,0 STARLINK-3103,1 49177U 21082AZ  22095.00001157 -.00711923  00000-0 -10035-1 0  9998,2 49177  69.9997 276.6851 0003391 267.8766 267.5324 15.58755241 33134,6769.396,92.381,393.556,388.965,0.0
49177.0,STARLINK-3103,PAYLOAD,2022-04-05 14:00:01,15.57807531,0.0003309,69.9997,275.0723,261.3743,305.5878,-0.0092794,-0.00640762,0.0,0 STARLINK-3103,1 49177U 21082AZ  22095.58335648 -.00640762  00000-0 -92794-2 0  9991,2 49177  69.9997 275.0723 0003309 261.3743 305.5878 15.57807531  3669,6772.141,92.438,396.247,391.765,0.0
49177.0,STARLINK-3103,PAYLOAD,2022-04-05 22:00:00,15.57350463,0.0003422,70.0,274.151,261.728,13.7048,-0.010587,-0.0071228,0.0,0 STARLINK-3103,1 49177U 21082AZ  22095.91667824 -.00712280  00000-0 -10587-1 0  9996,2 49177  70.0000 274.1510 0003422 261.7280  13.7048 15.57350463 33271,6773.465999999999,92.465,397.649,393.013,0.0
49177.0,STARLINK-3103,PAYLOAD,2022-04-06 14:00:01,15.56331375,0.0003539,70.0002,272.3116,271.53700000000003,139.1834,-0.011081,-0.00717236,0.0,0 STARLINK-3103,1 49177U 21082AZ  22096.58334491 -.00717236  00000-0 -11081-1 0  9997,2 49177  70.0002 272.3116 0003539 271.5370 139.1834 15.56331375  3704,6776.422,92.525,400.685,395.889,0.0
49177.0,STARLINK-3103,PAYLOAD,2022-04-06 22:00:00,15.55814601,0.0003475,70.0,271.3928,264.5035,212.9442,-0.011134,-0.00707779,0.0,0 STARLINK-3103,1 49177U 21082AZ  22096.91667824 -.00707779  00000-0 -11134-1 0  9993,2 49177  70.0000 271.3928 0003475 264.5035 212.9442 15.55814601 33436,6777.9230000000025,92.556,402.143,397.432,0.0
49177.0,STARLINK-3103,PAYLOAD,2022-04-07 14:00:01,15.54797206,0.0003334,70.0003,269.5574,270.5161,338.5414,-0.011678,-0.00714352,0.0,0 STARLINK-3103,1 49177U 21082AZ  22097.58334491 -.00714352  00000-0 -11678-1 0  9996,2 49177  70.0003 269.5574 0003334 270.5161 338.5414 15.54797206  3718,6780.879,92.617,405.005,400.483,0.0
49177.0,STARLINK-3103,PAYLOAD,2022-04-07 20:00:01,15.54412951,0.0003314,70.0001,268.8698,264.1657,303.6147,-0.01182,-0.00713016,0.0,0 STARLINK-3103,1 49177U 21082AZ  22097.83334491 -.00713016  00000-0 -11820-1 0  9999,2 49177  70.0001 268.8698 0003314 264.1657 303.6147 15.54412951 33576,6781.996999999999,92.639,406.109,401.614,0.0
49177.0,STARLINK-3103,PAYLOAD,2022-04-07 22:00:00,15.54284637,0.0003497,70.0001,268.6407,262.7378,51.207,-0.011853,-0.00711806,0.0,0 STARLINK-3103,1 49177U 21082AZ  22097.91667824 -.00711806  00000-0 -11853-1 0  9998,2 49177  70.0001 268.6407 0003497 262.7378  51.2070 15.54284637  3709,6782.37,92.647,406.607,401.86300000000006,0.0
